{"type": "FeatureCollection", "features": [ {"type": "Feature", "properties": {"norad_id": 41785, "name": "ALSAT 1B", "group": "resource", "lat": 28.91283169619789, "lon": -165.01775428441314, "alt_km": 652.1248458396576, "timestamp": "2025-12-25T09:48:51.943712+00:00", "meta": {"OBJECT_NAME": "ALSAT 1B", "OBJECT_ID": "2016-059C", "EPOCH": "2025-12-25T04:14:21.148224", "MEAN_MOTION": 14.7208693, "ECCENTRICITY": 0.0010739, "INCLINATION": 97.7807, "RA_OF_ASC_NODE": 10.4289, "ARG_OF_PERICENTER": 68.6421, "MEAN_ANOMALY": 291.5932, "EPHEMERIS_TYPE": 0, "CLASSIFICATION_TYPE": "U", "NORAD_CAT_ID": 41785, "ELEMENT_SET_NO": 999, "REV_AT_EPOCH": 49497, "BSTAR": 2.7024e-05, "MEAN_MOTION_DOT": 1.23e-06, "MEAN_MOTION_DDOT": 0}, "tle": {"line1": "1 41785U 16059C   25359.17663366  .00000123  00000+0  27024-4 0  9992", "line2": "2 41785  97.7807  10.4289 0010739  68.6421 291.5932 14.72086930494970"}}, "geometry": {"type": "Point", "coordinates": [-165.01775428441314, 28.91283169619789]}}, {"type": "Feature", "properties": {"norad_id": 41787, "name": "PATHFINDER 1", "group": "resource", "lat": 12.457390789440414, "lon": -0.14373410206622028, "alt_km": 652.6818270107433, "timestamp": "2025-12-25T09:48:51.943722+00:00", "meta": {"OBJECT_NAME": "PATHFINDER 1", "OBJECT_ID": "2016-059E", "EPOCH": "2025-12-24T23:56:16.778688", "MEAN_MOTION": 14.67342006, "ECCENTRICITY": 0.0029607, "INCLINATION": 97.8138, "RA_OF_ASC_NODE": 1.2022, "ARG_OF_PERICENTER": 43.7796, "MEAN_ANOMALY": 316.5749, "EPHEMERIS_TYPE": 0, "CLASSIFICATION_TYPE": "U", "NORAD_CAT_ID": 41787, "ELEMENT_SET_NO": 999, "REV_AT_EPOCH": 49416, "BSTAR": 0.00015377, "MEAN_MOTION_DOT": 8.27e-06, "MEAN_MOTION_DDOT": 0}, "tle": {"line1": "1 41787U 16059E   25358.99741642  .00000827  00000+0  15377-3 0  9995", "line2": "2 41787  97.8138   1.2022 0029607  43.7796 316.5749 14.67342006494164"}}, "geometry": {"type": "Point", "coordinates": [-0.14373410206622028, 12.457390789440414]}}, {"type": "Feature", "properties": {"norad_id": 41790, "name": "SCATSAT 1", "group": "resource", "lat": 3.927317651234992, "lon": -123.20011495699823, "alt_km": 633.3188024107121, "timestamp": "2025-12-25T09:48:51.943732+00:00", "meta": {"OBJECT_NAME": "SCATSAT 1", "OBJECT_ID": "2016-059H", "EPOCH": "2025-12-25T02:31:56.911584", "MEAN_MOTION": 14.78975153, "ECCENTRICITY": 0.0056464, "INCLINATION": 98.1447, "RA_OF_ASC_NODE": 55.9294, "ARG_OF_PERICENTER": 89.0623, "MEAN_ANOMALY": 271.7057, "EPHEMERIS_TYPE": 0, "CLASSIFICATION_TYPE": "U", "NORAD_CAT_ID": 41790, "ELEMENT_SET_NO": 999, "REV_AT_EPOCH": 7585, "BSTAR": 0.00020344, "MEAN_MOTION_DOT": 1.486e-05, "MEAN_MOTION_DDOT": 0}, "tle": {"line1": "1 41790U 16059H   25359.10551981  .00001486  00000+0  20344-3 0  9990", "line2": "2 41790  98.1447  55.9294 0056464  89.0623 271.7057 14.78975153 75857"}}, "geometry": {"type": "Point", "coordinates": [-123.20011495699823, 3.927317651234992]}}, {"type": "Feature", "properties": {"norad_id": 41875, "name": "GOKTURK 1A", "group": "resource", "lat": -62.30720250759763, "lon": 55.77493357927825, "alt_km": 692.2072001248916, "timestamp": "2025-12-25T09:48:51.943742+00:00", "meta": {"OBJECT_NAME": "GOKTURK 1A", "OBJECT_ID": "2016-073A", "EPOCH": "2025-12-25T05:25:18.629184", "MEAN_MOTION": 14.62794925, "ECCENTRICITY": 0.0001284, "INCLINATION": 98.1426, "RA_OF_ASC_NODE": 251.4248, "ARG_OF_PERICENTER": 80.9602, "MEAN_ANOMALY": 279.1745, "EPHEMERIS_TYPE": 0, "CLASSIFICATION_TYPE": "U", "NORAD_CAT_ID": 41875, "ELEMENT_SET_NO": 999, "REV_AT_EPOCH": 48339, "BSTAR": 0.00019052, "MEAN_MOTION_DOT": 9.25e-06, "MEAN_MOTION_DDOT": 0}, "tle": {"line1": "1 41875U 16073A   25359.22591006  .00000925  00000+0  19052-3 0  9996", "line2": "2 41875  98.1426 251.4248 0001284  80.9602 279.1745 14.62794925483394"}}, "geometry": {"type": "Point", "coordinates": [55.77493357927825, -62.30720250759763]}}, {"type": "Feature", "properties": {"norad_id": 41877, "name": "RESOURCESAT-2A", "group": "resource", "lat": -36.693072845252054, "lon": -117.41834196003896, "alt_km": 825.103059664154, "timestamp": "2025-12-25T09:48:51.943751+00:00", "meta": {"OBJECT_NAME": "RESOURCESAT-2A", "OBJECT_ID": "2016-074A", "EPOCH": "2025-12-25T03:43:43.476384", "MEAN_MOTION": 14.21604744, "ECCENTRICITY": 0.0001631, "INCLINATION": 98.7739, "RA_OF_ASC_NODE": 68.9383, "ARG_OF_PERICENTER": 200.9015, "MEAN_ANOMALY": 159.2095, "EPHEMERIS_TYPE": 0, "CLASSIFICATION_TYPE": "U", "NORAD_CAT_ID": 41877, "ELEMENT_SET_NO": 999, "REV_AT_EPOCH": 46957, "BSTAR": 1.4493e-05, "MEAN_MOTION_DOT": -1.3e-07, "MEAN_MOTION_DDOT": 0}, "tle": {"line1": "1 41877U 16074A   25359.15536431 -.00000013  00000+0  14493-4 0  9996", "line2": "2 41877  98.7739  68.9383 0001631 200.9015 159.2095 14.21604744469572"}}, "geometry": {"type": "Point", "coordinates": [-117.41834196003896, -36.693072845252054]}}, {"type": "Feature", "properties": {"norad_id": 41948, "name": "CARTOSAT-2D", "group": "resource", "lat": -9.603550930344015, "lon": 57.978777532224676, "alt_km": 514.7971066034706, "timestamp": "2025-12-25T09:48:51.943761+00:00", "meta": {"OBJECT_NAME": "CARTOSAT-2D", "OBJECT_ID": "2017-008A", "EPOCH": "2025-12-25T03:32:01.589568", "MEAN_MOTION": 15.19185361, "ECCENTRICITY": 0.0005437, "INCLINATION": 97.437, "RA_OF_ASC_NODE": 56.4547, "ARG_OF_PERICENTER": 118.3655, "MEAN_ANOMALY": 241.8128, "EPHEMERIS_TYPE": 0, "CLASSIFICATION_TYPE": "U", "NORAD_CAT_ID": 41948, "ELEMENT_SET_NO": 999, "REV_AT_EPOCH": 49115, "BSTAR": 0.00016319, "MEAN_MOTION_DOT": 3.366e-05, "MEAN_MOTION_DDOT": 0}, "tle": {"line1": "1 41948U 17008A   25359.14724062  .00003366  00000+0  16319-3 0  9992", "line2": "2 41948  97.4370  56.4547 0005437 118.3655 241.8128 15.19185361491153"}}, "geometry": {"type": "Point", "coordinates": [57.978777532224676, -9.603550930344015]}}, {"type": "Feature", "properties": {"norad_id": 42063, "name": "SENTINEL-2B", "group": "resource", "lat": -63.818741893099954, "lon": -126.18471762703034, "alt_km": 796.9464566450897, "timestamp": "2025-12-25T09:48:51.943771+00:00", "meta": {"OBJECT_NAME": "SENTINEL-2B", "OBJECT_ID": "2017-013A", "EPOCH": "2025-12-25T05:18:56.499264", "MEAN_MOTION": 14.30815179, "ECCENTRICITY": 0.0001174, "INCLINATION": 98.5699, "RA_OF_ASC_NODE": 71.4916, "ARG_OF_PERICENTER": 91.2223, "MEAN_ANOMALY": 268.9095, "EPHEMERIS_TYPE": 0, "CLASSIFICATION_TYPE": "U", "NORAD_CAT_ID": 42063, "ELEMENT_SET_NO": 999, "REV_AT_EPOCH": 45976, "BSTAR": 9.0141e-06, "MEAN_MOTION_DOT": -2e-07, "MEAN_MOTION_DDOT": 0}, "tle": {"line1": "1 42063U 17013A   25359.22148726 -.00000020  00000+0  90141-5 0  9995", "line2": "2 42063  98.5699  71.4916 0001174  91.2223 268.9095 14.30815179459762"}}, "geometry": {"type": "Point", "coordinates": [-126.18471762703034, -63.818741893099954]}}, {"type": "Feature", "properties": {"norad_id": 42767, "name": "CARTOSAT-2E", "group": "resource", "lat": -77.39059893214126, "lon": -158.99284842322282, "alt_km": 515.4744907147633, "timestamp": "2025-12-25T09:48:51.943781+00:00", "meta": {"OBJECT_NAME": "CARTOSAT-2E", "OBJECT_ID": "2017-036C", "EPOCH": "2025-12-25T03:55:55.235136", "MEAN_MOTION": 15.19192496, "ECCENTRICITY": 0.0002595, "INCLINATION": 97.4537, "RA_OF_ASC_NODE": 56.5866, "ARG_OF_PERICENTER": 175.5395, "MEAN_ANOMALY": 184.5863, "EPHEMERIS_TYPE": 0, "CLASSIFICATION_TYPE": "U", "NORAD_CAT_ID": 42767, "ELEMENT_SET_NO": 999, "REV_AT_EPOCH": 47172, "BSTAR": 0.00011911, "MEAN_MOTION_DOT": 2.438e-05, "MEAN_MOTION_DDOT": 0}, "tle": {"line1": "1 42767U 17036C   25359.16383374  .00002438  00000+0  11911-3 0  9994", "line2": "2 42767  97.4537  56.5866 0002595 175.5395 184.5863 15.19192496471728"}}, "geometry": {"type": "Point", "coordinates": [-158.99284842322282, -77.39059893214126]}}, {"type": "Feature", "properties": {"norad_id": 42920, "name": "FORMOSAT-5", "group": "resource", "lat": 75.98641427887739, "lon": 37.95960398566932, "alt_km": 722.9311271338984, "timestamp": "2025-12-25T09:48:51.943791+00:00", "meta": {"OBJECT_NAME": "FORMOSAT-5", "OBJECT_ID": "2017-049A", "EPOCH": "2025-12-25T04:29:13.243776", "MEAN_MOTION": 14.50767525, "ECCENTRICITY": 0.0009843, "INCLINATION": 98.2438, "RA_OF_ASC_NODE": 73.2551, "ARG_OF_PERICENTER": 258.8782, "MEAN_ANOMALY": 101.1306, "EPHEMERIS_TYPE": 0, "CLASSIFICATION_TYPE": "U", "NORAD_CAT_ID": 42920, "ELEMENT_SET_NO": 999, "REV_AT_EPOCH": 44144, "BSTAR": 7.0023e-05, "MEAN_MOTION_DOT": 2.32e-06, "MEAN_MOTION_DDOT": 0}, "tle": {"line1": "1 42920U 17049A   25359.18695884  .00000232  00000+0  70023-4 0  9993", "line2": "2 42920  98.2438  73.2551 0009843 258.8782 101.1306 14.50767525441441"}}, "geometry": {"type": "Point", "coordinates": [37.95960398566932, 75.98641427887739]}}, {"type": "Feature", "properties": {"norad_id": 42969, "name": "SENTINEL-5P", "group": "resource", "lat": 50.71147162004886, "lon": 128.7704462840189, "alt_km": 821.6675461554514, "timestamp": "2025-12-25T09:48:51.943802+00:00", "meta": {"OBJECT_NAME": "SENTINEL-5P", "OBJECT_ID": "2017-064A", "EPOCH": "2025-12-25T02:26:42.531360", "MEAN_MOTION": 14.19520507, "ECCENTRICITY": 0.0001061, "INCLINATION": 98.7802, "RA_OF_ASC_NODE": 297.5773, "ARG_OF_PERICENTER": 91.0415, "MEAN_ANOMALY": 269.0882, "EPHEMERIS_TYPE": 0, "CLASSIFICATION_TYPE": "U", "NORAD_CAT_ID": 42969, "ELEMENT_SET_NO": 999, "REV_AT_EPOCH": 42486, "BSTAR": 6.4598e-05, "MEAN_MOTION_DOT": 9.2e-07, "MEAN_MOTION_DDOT": 0}, "tle": {"line1": "1 42969U 17064A   25359.10188115  .00000092  00000+0  64598-4 0  9993", "line2": "2 42969  98.7802 297.5773 0001061  91.0415 269.0882 14.19520507424867"}}, "geometry": {"type": "Point", "coordinates": [128.7704462840189, 50.71147162004886]}}]}